{
    "links": {
        "self": "http://www.neowsapp.com/rest/v1/neo/3767004?api_key=iIulBulltgU6a56xZRHN4H3l9WmuAYTsLGpBGhQ2"
    },
    "id": "3767004",
    "neo_reference_id": "3767004",
    "name": "(2017 BV6)",
    "designation": "2017 BV6",
    "nasa_jpl_url": "http://ssd.jpl.nasa.gov/sbdb.cgi?sstr=3767004",
    "absolute_magnitude_h": 22.6,
    "estimated_diameter": {
        "kilometers": {
            "estimated_diameter_min": 0.0802703167,
            "estimated_diameter_max": 0.1794898848
        },
        "meters": {
            "estimated_diameter_min": 80.2703167283,
            "estimated_diameter_max": 179.4898847799
        },
        "miles": {
            "estimated_diameter_min": 0.049877647,
            "estimated_diameter_max": 0.1115298092
        },
        "feet": {
            "estimated_diameter_min": 263.3540659348,
            "estimated_diameter_max": 588.8775935812
        }
    },
    "is_potentially_hazardous_asteroid": false,
    "close_approach_data": [
        {
            "close_approach_date": "2004-02-05",
            "close_approach_date_full": "2004-Feb-05 00:22",
            "epoch_date_close_approach": 1075940520000,
            "relative_velocity": {
                "kilometers_per_second": "18.2619119332",
                "kilometers_per_hour": "65742.8829596266",
                "miles_per_hour": "40850.0708034413"
            },
            "miss_distance": {
                "astronomical": "0.3059586092",
                "lunar": "119.0178989788",
                "kilometers": "45770756.244482404",
                "miles": "28440629.1208250152"
            },
            "orbiting_body": "Earth"
        },
        {
            "close_approach_date": "2017-02-14",
            "close_approach_date_full": "2017-Feb-14 12:22",
            "epoch_date_close_approach": 1487074920000,
            "relative_velocity": {
                "kilometers_per_second": "13.1398843851",
                "kilometers_per_hour": "47303.5837864306",
                "miles_per_hour": "29392.607381074"
            },
            "miss_distance": {
                "astronomical": "0.125230731",
                "lunar": "48.714754359",
                "kilometers": "18734250.61614297",
                "miles": "11640923.536074186"
            },
            "orbiting_body": "Earth"
        }
    ],
    "orbital_data": {
        "orbit_id": "10",
        "orbit_determination_date": "2017-04-06 08:20:48",
        "first_observation_date": "2017-01-26",
        "last_observation_date": "2017-02-21",
        "data_arc_in_days": 26,
        "observations_used": 51,
        "orbit_uncertainty": "7",
        "minimum_orbit_intersection": ".120494",
        "jupiter_tisserand_invariant": "3.764",
        "epoch_osculation": "2459000.5",
        "eccentricity": ".4592570776988762",
        "semi_major_axis": "1.893963306978795",
        "inclination": "18.40691993875531",
        "ascending_node_longitude": "315.6738264252037",
        "orbital_period": "952.0412550243936",
        "perihelion_distance": "1.024147253346814",
        "perihelion_argument": "227.404651108606",
        "aphelion_distance": "2.763779360610776",
        "perihelion_time": "2458782.341810359391",
        "mean_anomaly": "82.49321954919586",
        "mean_motion": ".3781348739879722",
        "equinox": "J2000",
        "orbit_class": {
            "orbit_class_type": "AMO",
            "orbit_class_description": "Near-Earth asteroid orbits similar to that of 1221 Amor",
            "orbit_class_range": "1.017 AU < q (perihelion) < 1.3 AU"
        }
    },
    "is_sentry_object": false
}